STARLINK-30500
1 58076U 23160B   26061.16668981  .02308611  00000+0  95884-1 0  9993
2 58076  43.0007 120.1304 0001837 214.5553 300.6334 15.19645919  5810
